IRIDIUM 57 [-]          
1 25273U 98019B   24019.03167589  .00000670  00000+0  22838-3 0  9999
2 25273  86.3973   0.9921 0002199  87.5420 272.6028 14.35050538351094
IRIDIUM 63 [-]          
1 25286U 98021B   24018.83213325  .00000802  00000+0  27192-3 0  9998
2 25286  86.3993 298.0121 0002250  89.7887 270.3568 14.35572700349889
IRIDIUM 69 [-]          
1 25319U 98026A   24019.33964459  .00001105  00000+0  34670-3 0  9993
2 25319  86.4003 312.6294 0000577 353.7093   6.4098 14.39758431349197
IRIDIUM 71 [-]          
1 25320U 98026B   24019.16460660  .00000912  00000+0  28317-3 0  9997
2 25320  86.3993 307.5023 0002783  36.0543 324.0843 14.40083453349690
IRIDIUM 73 [-]          
1 25344U 98032C   24019.17774327  .00001003  00000+0  25254-3 0  9998
2 25344  86.4405 265.1427 0001534  76.1088 284.0288 14.50250269356186
IRIDIUM 82 [-]          
1 25467U 98051A   24018.90224824  .00019988  00000+0  11067-2 0  9994
2 25467  86.3960 356.6918 0142027  51.6813 309.7091 15.05389347345844
IRIDIUM 2 [-]           
1 25527U 98066A   24018.56186756  .00058083  00000+0  98533-3 0  9993
2 25527  85.5147  39.3460 0005458 140.1223 220.0438 15.51262472383865
